start=new Date('2023-03-14T00:00:00.000Z').valueOf();
sats=[{"TLE_LINE2":"2 48356  53.0536 223.3615 0001018 114.4185 245.6910 15.06394853103045","CLASSIFICATION_TYPE":"U","EPOCH":"2023-03-13T18:52:29.464032","MEAN_MOTION_DDOT":"0.0000000000000","MEAN_MOTION_DOT":"0.00007681","ELEMENT_SET_NO":"999","EPHEMERIS_TYPE":"0","NORAD_CAT_ID":"48356","GP_ID":"228008678","BSTAR":"0.00053404000000","PERIAPSIS":"546.524","TLE_LINE1":"1 48356U 21038D   23072.78645213  .00007681  00000-0  53404-3 0  9991","MEAN_MOTION":"15.06394853","PERIOD":"95.592","COUNTRY_CODE":"US","RCS_SIZE":"LARGE","OBJECT_NAME":"STARLINK-2637","OBJECT_TYPE":"PAYLOAD","LAUNCH_DATE":"2021-05-04","CENTER_NAME":"EARTH","MEAN_ELEMENT_THEORY":"SGP4","ARG_OF_PERICENTER":"114.4185","RA_OF_ASC_NODE":"223.3615","SITE":"AFETR","SEMIMAJOR_AXIS":"6925.364","MEAN_ANOMALY":"245.6910","REF_FRAME":"TEME","FILE":"3859483","INCLINATION":"53.0536","TIME_SYSTEM":"UTC","OBJECT_ID":"2021-038D","DECAY_DATE":null,"APOAPSIS":"547.934","REV_AT_EPOCH":"10304","ECCENTRICITY":"0.00010180"},{"LAUNCH_DATE":"2021-05-04","OBJECT_TYPE":"PAYLOAD","OBJECT_NAME":"STARLINK-2636","RCS_SIZE":"LARGE","COUNTRY_CODE":"US","PERIOD":"95.592","ECCENTRICITY":"0.00010510","REV_AT_EPOCH":"10245","APOAPSIS":"547.920","OBJECT_ID":"2021-038E","DECAY_DATE":null,"TIME_SYSTEM":"UTC","INCLINATION":"53.0509","FILE":"3859631","SEMIMAJOR_AXIS":"6925.327","MEAN_ANOMALY":"256.5047","REF_FRAME":"TEME","SITE":"AFETR","MEAN_ELEMENT_THEORY":"SGP4","ARG_OF_PERICENTER":"103.6059","RA_OF_ASC_NODE":"223.3942","CENTER_NAME":"EARTH","EPHEMERIS_TYPE":"0","ELEMENT_SET_NO":"999","MEAN_MOTION_DOT":"0.00002620","MEAN_MOTION_DDOT":"0.0000000000000","CLASSIFICATION_TYPE":"U","EPOCH":"2023-03-13T18:51:07.907616","TLE_LINE2":"2 48357  53.0509 223.3942 0001051 103.6059 256.5047 15.06407035102459","MEAN_MOTION":"15.06407035","TLE_LINE1":"1 48357U 21038E   23072.78550819  .00002620  00000-0  19466-3 0  9997","PERIAPSIS":"546.464","GP_ID":"228031552","BSTAR":"0.00019466000000","NORAD_CAT_ID":"48357"},{"MEAN_MOTION":"15.06411282","TLE_LINE1":"1 48358U 21038F   23072.44733630  .00005538  00000-0  39028-3 0  9992","PERIAPSIS":"546.248","GP_ID":"228002422","BSTAR":"0.00039028000000","NORAD_CAT_ID":"48358","EPHEMERIS_TYPE":"0","ELEMENT_SET_NO":"999","MEAN_MOTION_DOT":"0.00005538","MEAN_MOTION_DDOT":"0.0000000000000","EPOCH":"2023-03-13T10:44:09.856320","CLASSIFICATION_TYPE":"U","TLE_LINE2":"2 48358  53.0520 224.8841 0001344  92.9916 267.1227 15.06411282102394","ECCENTRICITY":"0.00013440","REV_AT_EPOCH":"10239","APOAPSIS":"548.110","OBJECT_ID":"2021-038F","DECAY_DATE":null,"TIME_SYSTEM":"UTC","FILE":"3859425","INCLINATION":"53.0520","REF_FRAME":"TEME","SEMIMAJOR_AXIS":"6925.314","MEAN_ANOMALY":"267.1227","SITE":"AFETR","RA_OF_ASC_NODE":"224.8841","ARG_OF_PERICENTER":"92.9916","MEAN_ELEMENT_THEORY":"SGP4","CENTER_NAME":"EARTH","LAUNCH_DATE":"2021-05-04","OBJECT_TYPE":"PAYLOAD","OBJECT_NAME":"STARLINK-2624","COUNTRY_CODE":"US","RCS_SIZE":"LARGE","PERIOD":"95.591"},{"MEAN_MOTION_DDOT":"0.0000000000000","CLASSIFICATION_TYPE":"U","EPOCH":"2023-03-13T10:38:52.486656","TLE_LINE2":"2 48359  53.0516 224.8978 0000678 323.9539  36.1404 15.06374354102397","EPHEMERIS_TYPE":"0","ELEMENT_SET_NO":"999","MEAN_MOTION_DOT":"0.00005519","GP_ID":"228001674","BSTAR":"0.00038934000000","NORAD_CAT_ID":"48359","MEAN_MOTION":"15.06374354","TLE_LINE1":"1 48359U 21038G   23072.44366304  .00005519  00000-0  38934-3 0  9997","PERIAPSIS":"546.823","OBJECT_TYPE":"PAYLOAD","OBJECT_NAME":"STARLINK-2628","COUNTRY_CODE":"US","RCS_SIZE":"LARGE","PERIOD":"95.594","LAUNCH_DATE":"2021-05-04","INCLINATION":"53.0516","FILE":"3859425","REF_FRAME":"TEME","SEMIMAJOR_AXIS":"6925.427","MEAN_ANOMALY":"36.1404","SITE":"AFETR","ARG_OF_PERICENTER":"323.9539","RA_OF_ASC_NODE":"224.8978","MEAN_ELEMENT_THEORY":"SGP4","CENTER_NAME":"EARTH","ECCENTRICITY":"0.00006780","REV_AT_EPOCH":"10239","APOAPSIS":"547.762","DECAY_DATE":null,"OBJECT_ID":"2021-038G","TIME_SYSTEM":"UTC"},{"GP_ID":"228001924","BSTAR":"0.00008593400000","NORAD_CAT_ID":"48360","PERIAPSIS":"546.319","TLE_LINE1":"1 48360U 21038H   23072.43996870  .00000999  00000-0  85934-4 0  9995","MEAN_MOTION":"15.06391924","TLE_LINE2":"2 48360  53.0511 224.9160 0001328 107.1762 252.9372 15.06391924102395","MEAN_MOTION_DDOT":"0.0000000000000","CLASSIFICATION_TYPE":"U","EPOCH":"2023-03-13T10:33:33.295680","MEAN_MOTION_DOT":"0.00000999","ELEMENT_SET_NO":"999","EPHEMERIS_TYPE":"0","SITE":"AFETR","MEAN_ANOMALY":"252.9372","SEMIMAJOR_AXIS":"6925.373","REF_FRAME":"TEME","CENTER_NAME":"EARTH","MEAN_ELEMENT_THEORY":"SGP4","ARG_OF_PERICENTER":"107.1762","RA_OF_ASC_NODE":"224.9160","FILE":"3859425","INCLINATION":"53.0511","DECAY_DATE":null,"OBJECT_ID":"2021-038H","TIME_SYSTEM":"UTC","REV_AT_EPOCH":"10239","ECCENTRICITY":"0.00013280","APOAPSIS":"548.158","RCS_SIZE":"LARGE","COUNTRY_CODE":"US","OBJECT_NAME":"STARLINK-2622","PERIOD":"95.593","OBJECT_TYPE":"PAYLOAD","LAUNCH_DATE":"2021-05-04"},{"OBJECT_TYPE":"PAYLOAD","OBJECT_NAME":"STARLINK-2591","RCS_SIZE":"LARGE","COUNTRY_CODE":"US","PERIOD":"95.593","LAUNCH_DATE":"2021-05-04","FILE":"3859631","INCLINATION":"53.0552","SEMIMAJOR_AXIS":"6925.392","MEAN_ANOMALY":"280.1207","REF_FRAME":"TEME","SITE":"AFETR","ARG_OF_PERICENTER":"79.9992","RA_OF_ASC_NODE":"223.1422","MEAN_ELEMENT_THEORY":"SGP4","CENTER_NAME":"EARTH","ECCENTRICITY":"0.00018620","REV_AT_EPOCH":"10245","APOAPSIS":"548.547","DECAY_DATE":null,"OBJECT_ID":"2021-038J","TIME_SYSTEM":"UTC","MEAN_MOTION_DDOT":"0.0000000000000","EPOCH":"2023-03-13T20:01:30.366336","CLASSIFICATION_TYPE":"U","TLE_LINE2":"2 48361  53.0552 223.1422 0001862  79.9992 280.1207 15.06385782102459","EPHEMERIS_TYPE":"0","ELEMENT_SET_NO":"999","MEAN_MOTION_DOT":"0.00001195","GP_ID":"228032052","BSTAR":"0.00009917700000","NORAD_CAT_ID":"48361","MEAN_MOTION":"15.06385782","TLE_LINE1":"1 48361U 21038J   23072.83437924  .00001195  00000-0  99177-4 0  9993","PERIAPSIS":"545.968"},{"NORAD_CAT_ID":"48362","GP_ID":"228032804","BSTAR":"0.00002519800000","PERIAPSIS":"546.589","TLE_LINE1":"1 48362U 21038K   23072.80122132  .00000094  00000-0  25198-4 0  9992","MEAN_MOTION":"15.06375603","TLE_LINE2":"2 48362  53.0562 223.3797 0001010 142.6366 217.4693 15.06375603102459","EPOCH":"2023-03-13T19:13:45.522048","CLASSIFICATION_TYPE":"U","MEAN_MOTION_DDOT":"0.0000000000000","MEAN_MOTION_DOT":"0.00000094","ELEMENT_SET_NO":"999","EPHEMERIS_TYPE":"0","CENTER_NAME":"EARTH","ARG_OF_PERICENTER":"142.6366","RA_OF_ASC_NODE":"223.3797","MEAN_ELEMENT_THEORY":"SGP4","SITE":"AFETR","REF_FRAME":"TEME","SEMIMAJOR_AXIS":"6925.423","MEAN_ANOMALY":"217.4693","FILE":"3859631","INCLINATION":"53.0562","TIME_SYSTEM":"UTC","OBJECT_ID":"2021-038K","DECAY_DATE":null,"APOAPSIS":"547.988","REV_AT_EPOCH":"10245","ECCENTRICITY":"0.00010100","PERIOD":"95.594","COUNTRY_CODE":"US","RCS_SIZE":"LARGE","OBJECT_NAME":"STARLINK-2578","OBJECT_TYPE":"PAYLOAD","LAUNCH_DATE":"2021-05-04"},{"LAUNCH_DATE":"2021-05-04","PERIOD":"95.592","RCS_SIZE":"LARGE","COUNTRY_CODE":"US","OBJECT_NAME":"STARLINK-2626","OBJECT_TYPE":"PAYLOAD","TIME_SYSTEM":"UTC","OBJECT_ID":"2021-038L","DECAY_DATE":null,"APOAPSIS":"548.193","REV_AT_EPOCH":"10253","ECCENTRICITY":"0.00014020","CENTER_NAME":"EARTH","ARG_OF_PERICENTER":"89.7634","RA_OF_ASC_NODE":"217.9541","MEAN_ELEMENT_THEORY":"SGP4","SITE":"AFETR","SEMIMAJOR_AXIS":"6925.357","MEAN_ANOMALY":"270.3516","REF_FRAME":"TEME","FILE":"3859631","INCLINATION":"53.0534","MEAN_MOTION_DOT":"-0.00000153","ELEMENT_SET_NO":"999","EPHEMERIS_TYPE":"0","TLE_LINE2":"2 48363  53.0534 217.9541 0001402  89.7634 270.3516 15.06397334102535","CLASSIFICATION_TYPE":"U","EPOCH":"2023-03-13T21:03:11.016576","MEAN_MOTION_DDOT":"0.0000000000000","PERIAPSIS":"546.251","TLE_LINE1":"1 48363U 21038L   23072.87721084 -.00000153  00000-0  86315-5 0  9997","MEAN_MOTION":"15.06397334","NORAD_CAT_ID":"48363","GP_ID":"228032555","BSTAR":"0.00000863150000"},{"EPHEMERIS_TYPE":"0","ELEMENT_SET_NO":"999","MEAN_MOTION_DOT":"0.00019520","MEAN_MOTION_DDOT":"0.0000000000000","EPOCH":"2023-03-13T10:15:40.986144","CLASSIFICATION_TYPE":"U","TLE_LINE2":"2 48364  53.0527 220.1756 0000242 334.6388  25.4589 15.06404949102463","MEAN_MOTION":"15.06404949","TLE_LINE1":"1 48364U 21038M   23072.42755771  .00019520  00000-0  13255-2 0  9996","PERIAPSIS":"547.031","GP_ID":"228001425","BSTAR":"0.00132550000000","NORAD_CAT_ID":"48364","LAUNCH_DATE":"2021-05-04","OBJECT_TYPE":"PAYLOAD","OBJECT_NAME":"STARLINK-2611","RCS_SIZE":"LARGE","COUNTRY_CODE":"US","PERIOD":"95.592","ECCENTRICITY":"0.00002420","REV_AT_EPOCH":"10246","APOAPSIS":"547.366","DECAY_DATE":null,"OBJECT_ID":"2021-038M","TIME_SYSTEM":"UTC","FILE":"3859425","INCLINATION":"53.0527","REF_FRAME":"TEME","SEMIMAJOR_AXIS":"6925.333","MEAN_ANOMALY":"25.4589","SITE":"AFETR","ARG_OF_PERICENTER":"334.6388","RA_OF_ASC_NODE":"220.1756","MEAN_ELEMENT_THEORY":"SGP4","CENTER_NAME":"EARTH"},{"ELEMENT_SET_NO":"999","MEAN_MOTION_DOT":"0.00003252","EPHEMERIS_TYPE":"0","TLE_LINE2":"2 48365  53.0552 218.3618 0001334  89.6820 270.4322 15.06405656103115","MEAN_MOTION_DDOT":"0.0000000000000","EPOCH":"2023-03-13T18:50:29.600448","CLASSIFICATION_TYPE":"U","PERIAPSIS":"546.272","MEAN_MOTION":"15.06405656","TLE_LINE1":"1 48365U 21038N   23072.78506482  .00003252  00000-0  23709-3 0  9990","BSTAR":"0.00023709000000","GP_ID":"228008717","NORAD_CAT_ID":"48365","LAUNCH_DATE":"2021-05-04","OBJECT_NAME":"STARLINK-2608","COUNTRY_CODE":"US","RCS_SIZE":"LARGE","PERIOD":"95.592","OBJECT_TYPE":"PAYLOAD","OBJECT_ID":"2021-038N","DECAY_DATE":null,"TIME_SYSTEM":"UTC","ECCENTRICITY":"0.00013340","REV_AT_EPOCH":"10311","APOAPSIS":"548.120","SEMIMAJOR_AXIS":"6925.331","REF_FRAME":"TEME","MEAN_ANOMALY":"270.4322","SITE":"AFETR","ARG_OF_PERICENTER":"89.6820","RA_OF_ASC_NODE":"218.3618","MEAN_ELEMENT_THEORY":"SGP4","CENTER_NAME":"EARTH","INCLINATION":"53.0552","FILE":"3859485"}];
